#dP2021  3 30  0  0  0.00000000      96 __u+U ITR00 EXT  IAC
## 2151 172800.00000000   900.00000000 59303 0.0000000000000
+  117   C06C07C08C09C10C11C12C13C14C16C19C20C21C22C23C24C25
+        C26C27C28C29C30C32C33C34C35C36C37C38C39C40C41C42C43
+        C44C45C46E01E02E03E04E05E07E08E09E11E12E13E14E15E18
+        E19E21E24E25E26E27E30E31E33E36G01G02G03G04G05G06G07
+        G08G09G10G11G12G13G14G15G16G17G18G19G20G21G22G23G24
+        G25G26G27G28G29G30G31G32J01J02J03R01R02R03R04R05R07
+        R08R09R11R12R13R14R15R16R17R18R19R20R21R22R24  0  0
++        12 10 10 11 10 12  9 11  8 11  8 10  9  9  8 10  9
++         9  9  7 10 10 10  8  9 10 10 11 10  8 11  9  9  9
++        10 11 10  9  8  8  8  7  8  8  8  7  7  7  8  9  9
++         8  7  9  8  8  9  9  8  7  8  7  8  9  7  7  8  8
++         7  8  7 10  7  9  7  8  7  8  8 10  7  8  9  8  8
++         8  7  7  8  7  9  9  8 12  9  8 10  7  9  9  8  8
++         9  9  9 10  9  9  8  8 10  7 11  8  8 10  7  0  0
%c M  cc GPS ccc cccc cccc cccc cccc ccccc ccccc ccccc ccccc
%c cc cc ccc ccc cccc cccc cccc cccc ccccc ccccc ccccc ccccc
%f  0.0000000  0.000000000  0.00000000000  0.000000000000000
%f  0.0000000  0.000000000  0.00000000000  0.000000000000000
%i    0    0    0    0      0      0      0      0         0
%i    0    0    0    0      0      0      0      0         0
/* IAC                                ULTRA-RAPID PREDICTION
/* S/V CLOCKS ARE ALIGNED TO GNSS TIME                      
/* G:C1WC2W R:C1PC2P E:C1XC5X C:C2IC6I J:C1CC2S             
/* PCV:IGS14_2134 OL/AL:FES2004  NONE     YN ORB:CoN CLK:CoN
*  2021 03 30 18  0  0.00000000
PC06 -10035.113434  35868.504202  20671.488954    228.209445
PC07 -17014.995458  21742.150606 -31696.532993    -70.063865
PC08 -25377.920153  30864.699608  12972.157697   -895.665029
PC09   -839.544189  41882.562292   6812.287333    631.287215
PC10   -497.848003  26943.601113 -32169.492604    -63.865023
PC11  15291.365521  -1638.637345  23347.721758   -838.286934
PC12  11783.112599  18199.790592  17595.908345    904.958055
PC13 -12984.525925  31805.783395  24382.804643    201.526582
PC14  24859.966050   3972.826662 -11947.693253    341.689735
PC16  -6550.877650  37989.120834  17434.141050   -759.079738
PC19 -20197.138729   3966.061769  18883.083597    780.660626
PC20 -25599.131108 -10132.232091   4678.262697   -941.535486
PC21  15844.279910  18890.666235  13071.962510   -913.618135
PC22  -2966.529306  16173.136667  22551.530809   -940.048665
PC23  13136.178272 -19939.157909  14445.767838   -881.946033
PC24  21389.694465   2027.011296 -17834.759270   -798.160594
PC25  24179.250224 -13838.741031  -1820.418493   -940.292636
PC26   7019.634319  14692.768257 -22670.554269    928.006977
PC27  -7106.533944 -25054.070796 -10014.779780    507.245496
PC28   5055.464646 -26361.839488   7635.065759    -92.207318
PC29 -13739.647766  12723.045760 -20700.098806    372.075355
PC30 -15304.042448  -9051.392830 -21506.397588    456.429891
PC32 -16033.476423 -18762.873912 -13014.047832   -925.846784
PC33  20212.599852  -4026.835489 -18794.633590   -943.413299
PC34  15433.816885   8361.269734  21691.949714   -707.158458
PC35  -4360.991402  26427.227824  -7908.472339   -350.272901
PC36 -24578.038889  13037.256831   2172.925858   -736.000457
PC37  -5734.012866 -15358.209147  22596.618997   -885.793571
PC38 -21951.255703  32489.770386  15390.761377    139.101181
PC39  -2971.258772  38857.340925  16287.450132     29.842624
PC40  -2694.807641  22864.207743 -35307.312562    146.194429
PC41   3194.108918 -16079.953552 -22528.852518   -937.067079
PC42  25489.478932  10628.707067  -3903.214947   -932.211372
PC43  14060.933679 -12115.778495  20823.200500   -663.153616
PC44   7854.721760  24956.746867   9754.088343    112.474998
PC45 -13033.307771  19900.561932 -14572.237921    400.624087
PC46 -21817.680155  -1164.948112  17340.585577    338.945751
PE01  29538.242977   -976.357154  -1749.966615  -1076.553461
PE02 -29525.587907   1061.925535   1623.134661    208.680764
PE03 -20973.283786  -5339.801838  20201.516542   -414.668932
PE04  10600.844461 -14208.669704 -23696.057312   -739.822569
PE05 -19176.721006 -22036.229207   4790.755270   -292.818804
PE07   6205.817632  25718.679148  13273.288525   -519.393454
PE08 -10187.356491  14446.287334  23744.825013   6025.211803
PE09  -6562.134945 -25685.414925 -13175.571916   5717.395676
PE11   4863.207669 -27089.101388 -10868.186146   6148.706854
PE12  16871.514810 -22744.804534   8573.359509   5284.313780
PE13  -5127.833729  27204.039140  10504.894565    414.310192
PE14 -22207.802571  -6154.101663 -23007.756726  -1379.862394
PE15 -16753.557608  22862.737286  -8542.601426    821.996266
PE18  15827.746030   3928.892634  16739.806068  -1509.237120
PE19  21348.320281   7685.218740 -19003.081153    239.897569
PE21  20857.406760  10655.718440 -18110.483786   -656.547187
PE24   1190.492159 -16657.314858  24424.110495   -820.681540
PE25 -20686.924580 -10751.549732  18233.628802   -529.745241
PE26  10070.164258  14950.033899  23487.111206   1981.701166
PE27   -216.796529  16585.635745 -24517.108073     -0.663529
PE30 -21773.641134  12295.059340 -15838.428981   3064.885222
PE31  21045.360324 -12732.013108  16474.471452   -479.676363
PE33  18501.890318  -5044.881779  22551.445461   -467.045020
PE36  -9509.336402 -15506.233890 -23341.708205   -187.009651
PG01  13616.927962 -22224.724045  -4262.381702    728.761703
PG02 -18858.300173   8638.743173 -15955.960098   -591.111493
PG03   9482.384844 -13339.224348 -20974.979312   -122.838444
PG04   4274.471627 -20581.593437 -16197.523297   -189.185174
PG05 -24111.751513   4965.596912  10060.614576    -37.685348
PG06 -14358.464704  -5014.031552 -21719.600878      3.845922
PG07   1979.445940 -21151.147858  15967.683010    106.697488
PG08   9574.594804 -13553.036445  20663.159601    -15.681831
PG09  -5085.969150 -24943.112630  -7590.024534   -335.222640
PG10  19878.642652  11782.335299  13443.226695    -91.837608
PG11   8883.966536 -24343.440506   6209.538514     15.761153
PG12 -13561.275863  11216.405779 -20100.239955    -21.169810
PG13 -14544.344599   3621.865791  21794.785161    113.985305
PG14 -18416.757178 -13132.253320  13926.243564     98.790971
PG15  -8481.448298  15025.408743  19745.969730   -159.568196
PG16  25603.474290    292.793186   7664.418482   -302.036483
PG17 -13434.406732 -21081.072370  -8544.143854    418.330690
PG18    437.164033  19446.150800  18053.059030    351.372943
PG19 -15680.790942 -14363.699488 -16261.092194    -19.467746
PG20   1815.532609  15651.730953  21341.129436    523.672511
PG21  17127.488049 -19426.147315   5346.914869    107.219928
PG22  18348.390328 -10929.128806 -15476.663343   -649.098786
PG23   9246.495509  14876.985974  19957.738848    115.825243
PG24 -15427.813538  21269.003898   1673.610355      0.403512
PG25   1637.915579  15526.534107 -21774.132223    109.033365
PG26  26283.342068   4047.937119  -2530.106859     65.356285
PG27  15517.669603   -458.229572  21433.738883   -103.716091
PG28 -19552.823998 -13161.208281  12606.467282    594.307061
PG29   3712.517102  25367.127512  -6903.653057   -321.259517
PG30  -9343.598979 -13147.901507  21126.794800   -405.919355
PG31  16716.339499   2454.432509 -20680.055532   -108.694624
PG32  15782.820120  18920.853445 -10031.821190     21.865463
PJ01 -26377.947277  21357.875133  30000.780596   -360.019961
PJ02 -34879.719165  17450.075102 -11446.111695      4.390959
PJ03 -20787.565320  28770.794153 -18156.554516     -2.536010
PR01 -17244.802043  -2035.234049  18697.386026     77.139153
PR02   -382.738804  13114.543552  21931.367564    472.864527
PR03  14403.375117  18252.733183  10595.997184     33.324433
PR04  20872.346712  13098.574850  -6571.423442     80.183994
PR05  15704.605858    727.457957 -20079.572637     69.087972
PR07 -14826.104953 -18195.689030  -9894.923001    -42.569399
PR08 -20919.653271 -12951.902468   6751.643804    -58.253932
PR09  12947.081653 -14046.204115  16879.503777    -14.538300
PR11 -19794.476994   -265.760958  16098.711503      1.732860
PR12 -23644.487938   9505.169124   -763.582306    216.829428
PR13 -13558.237444  13899.312440 -16561.300905    -52.744800
PR14   4977.912402   9948.042494 -22948.084620     62.584670
PR15  20075.456314    367.852126 -15720.590649    104.627734
PR16  23267.297267 -10482.014176   1717.591570    -13.168698
PR17   1696.878342  22533.424454  11812.663223    412.264293
PR18   8614.655241   8959.457813  22300.432901     71.543165
PR19  11277.816228  -8406.749506  21278.734997   -137.813695
PR20   7472.473255 -23566.014285   6187.341673    -46.332637
PR21  -2135.883665 -21949.306138 -12835.946366   -198.187589
PR22  -8895.738732  -7680.155880 -22637.858095   -105.318690
PR24  -6952.020765  23939.408746  -5377.684326     36.968522
EOF
